*******************************************************************************
Ephemeris / WWW_USER Mon Mar 24 07:53:26 2025 Pasadena, USA      / Horizons    
*******************************************************************************
Target body name: (2018 SL3)                      {source: JPL#9}
Center body name: Earth (399)                     {source: DE441}
Center-site name: Mauna Kea
*******************************************************************************
Start time      : A.D. 2019-Jan-16 04:13:00.0000 UT      
Stop  time      : A.D. 2019-Jan-16 16:49:00.0000 UT      
Step-size       : 1 minutes
*******************************************************************************
Target pole/equ : undefined
Target radii    : undefined                                                    
Center geodetic : 204.5278, 19.8260847, 4.21024   {E-lon(deg),Lat(deg),Alt(km)}
Center cylindric: 204.5278, 6006.35451, 2151.0229 {E-lon(deg),Dxy(km),Dz(km)}
Center pole/equ : ITRF93                          {East-longitude positive}
Center radii    : 6378.137, 6378.137, 6356.752 km {Equator_a, b, pole_c}       
Target primary  : Sun
Vis. interferer : MOON (R_eq= 1737.400) km        {source: DE441}
Rel. light bend : Sun                             {source: DE441}
Rel. lght bnd GM: 1.3271E+11 km^3/s^2                                          
Small-body perts: Yes                             {source: SB441-N16}
Atmos refraction: NO (AIRLESS)
RA format       : HMS
Time format     : CAL 
Calendar mode   : Mixed Julian/Gregorian
RTS-only print  : NO       
EOP file        : eop.250321.p250617                                           
EOP coverage    : DATA-BASED 1962-JAN-20 TO 2025-MAR-21. PREDICTS-> 2025-JUN-16
Units conversion: 1 au= 149597870.700 km, c= 299792.458 km/s, 1 day= 86400.0 s 
Table cut-offs 1: Elevation (-90.0deg=NO ),Airmass (>38.000=NO), Daylight (YES)
Table cut-offs 2: Solar elongation (  0.0,180.0=NO ),Local Hour Angle( 0.0=NO )
Table cut-offs 3: RA/DEC angular rate (     0.0=NO )                           
*******************************************************************************
Initial IAU76/J2000 heliocentric ecliptic osculating elements (au, days, deg.):
  EPOCH=  2458395.5 ! 2018-Oct-04.00 (TDB)         Residual RMS= .22865        
   EC= .523832704749462    QR= .7523817427125933   TP= 2458455.4342692108      
   OM= 5.37828463666876    W=  89.37669799750542   IN= 4.07069530013935        
  Equivalent ICRF heliocentric cartesian coordinates (au, au/d):
   X= 1.077301312774806E+00  Y= 1.718701187822678E-01  Z= 8.135917115484240E-02
  VX=-1.117713770282307E-02 VY= 1.338322199759621E-02 VZ= 7.048365308861806E-03
Asteroid physical parameters (km, seconds, rotational period in hours):        
   GM= n.a.                RAD= n.a.               ROTPER= n.a.                
   H= 24.5                 G= .150                 B-V= n.a.                   
                           ALBEDO= n.a.            STYP= n.a.                  
*******************************************************************************
 Date__(UT)__HR:MN     R.A._________(ICRF)_________DEC
******************************************************
$$SOE
 2019-Jan-16 14:28     15 16 27.695479 -16 20 18.51078
 2019-Jan-16 14:29     15 16 27.781997 -16 20 19.08633
 2019-Jan-16 14:30     15 16 27.868504 -16 20 19.66184
 2019-Jan-16 14:31     15 16 27.954999 -16 20 20.23732
 2019-Jan-16 14:32     15 16 28.041484 -16 20 20.81275
 2019-Jan-16 14:33     15 16 28.127957 -16 20 21.38814
 2019-Jan-16 14:34     15 16 28.214420 -16 20 21.96348
 2019-Jan-16 14:35     15 16 28.300871 -16 20 22.53879
 2019-Jan-16 14:36     15 16 28.387311 -16 20 23.11405
 2019-Jan-16 14:37     15 16 28.473741 -16 20 23.68927
 2019-Jan-16 14:38     15 16 28.560159 -16 20 24.26445
 2019-Jan-16 14:39     15 16 28.646566 -16 20 24.83959
 2019-Jan-16 14:40     15 16 28.732963 -16 20 25.41468
 2019-Jan-16 14:41     15 16 28.819349 -16 20 25.98973
 2019-Jan-16 14:42     15 16 28.905724 -16 20 26.56473
 2019-Jan-16 14:43     15 16 28.992088 -16 20 27.13970
 2019-Jan-16 14:44     15 16 29.078441 -16 20 27.71461
 2019-Jan-16 14:45     15 16 29.164784 -16 20 28.28949
 2019-Jan-16 14:46     15 16 29.251116 -16 20 28.86432
 2019-Jan-16 14:47     15 16 29.337438 -16 20 29.43911
 2019-Jan-16 14:48     15 16 29.423749 -16 20 30.01385
 2019-Jan-16 14:49     15 16 29.510050 -16 20 30.58855
 2019-Jan-16 14:50     15 16 29.596340 -16 20 31.16320
 2019-Jan-16 14:51     15 16 29.682619 -16 20 31.73781
 2019-Jan-16 14:52     15 16 29.768889 -16 20 32.31237
 2019-Jan-16 14:53     15 16 29.855148 -16 20 32.88689
 2019-Jan-16 14:54     15 16 29.941396 -16 20 33.46136
 2019-Jan-16 14:55     15 16 30.027635 -16 20 34.03579
 2019-Jan-16 14:56     15 16 30.113863 -16 20 34.61017
 2019-Jan-16 14:57     15 16 30.200081 -16 20 35.18450
 2019-Jan-16 14:58     15 16 30.286289 -16 20 35.75879
 2019-Jan-16 14:59     15 16 30.372486 -16 20 36.33304
 2019-Jan-16 15:00     15 16 30.458674 -16 20 36.90723
 2019-Jan-16 15:01     15 16 30.544852 -16 20 37.48138
 2019-Jan-16 15:02     15 16 30.631020 -16 20 38.05548
 2019-Jan-16 15:03     15 16 30.717178 -16 20 38.62954
 2019-Jan-16 15:04     15 16 30.803325 -16 20 39.20355
 2019-Jan-16 15:05     15 16 30.889464 -16 20 39.77751
 2019-Jan-16 15:06     15 16 30.975592 -16 20 40.35142
 2019-Jan-16 15:07     15 16 31.061711 -16 20 40.92529
 2019-Jan-16 15:08     15 16 31.147820 -16 20 41.49910
 2019-Jan-16 15:09     15 16 31.233919 -16 20 42.07287
 2019-Jan-16 15:10     15 16 31.320009 -16 20 42.64660
 2019-Jan-16 15:11     15 16 31.406089 -16 20 43.22027
 2019-Jan-16 15:12     15 16 31.492159 -16 20 43.79389
 2019-Jan-16 15:13     15 16 31.578220 -16 20 44.36747
 2019-Jan-16 15:14     15 16 31.664272 -16 20 44.94100
 2019-Jan-16 15:15     15 16 31.750314 -16 20 45.51448
 2019-Jan-16 15:16     15 16 31.836347 -16 20 46.08791
 2019-Jan-16 15:17     15 16 31.922371 -16 20 46.66129
 2019-Jan-16 15:18     15 16 32.008385 -16 20 47.23462
 2019-Jan-16 15:19     15 16 32.094391 -16 20 47.80790
 2019-Jan-16 15:20     15 16 32.180387 -16 20 48.38113
 2019-Jan-16 15:21     15 16 32.266374 -16 20 48.95431
 2019-Jan-16 15:22     15 16 32.352352 -16 20 49.52744
 2019-Jan-16 15:23     15 16 32.438321 -16 20 50.10053
 2019-Jan-16 15:24     15 16 32.524281 -16 20 50.67356
 2019-Jan-16 15:25     15 16 32.610232 -16 20 51.24654
 2019-Jan-16 15:26     15 16 32.696174 -16 20 51.81947
 2019-Jan-16 15:27     15 16 32.782107 -16 20 52.39235
 2019-Jan-16 15:28     15 16 32.868032 -16 20 52.96517
 2019-Jan-16 15:29     15 16 32.953947 -16 20 53.53795
 2019-Jan-16 15:30     15 16 33.039855 -16 20 54.11068
 2019-Jan-16 15:31     15 16 33.125753 -16 20 54.68335
 2019-Jan-16 15:32     15 16 33.211643 -16 20 55.25597
 2019-Jan-16 15:33     15 16 33.297525 -16 20 55.82855
 2019-Jan-16 15:34     15 16 33.383397 -16 20 56.40107
 2019-Jan-16 15:35     15 16 33.469262 -16 20 56.97353
 2019-Jan-16 15:36     15 16 33.555118 -16 20 57.54595
 2019-Jan-16 15:37     15 16 33.640966 -16 20 58.11831
 2019-Jan-16 15:38     15 16 33.726805 -16 20 58.69062
 2019-Jan-16 15:39     15 16 33.812636 -16 20 59.26288
 2019-Jan-16 15:40     15 16 33.898460 -16 20 59.83509
 2019-Jan-16 15:41     15 16 33.984274 -16 21 00.40724
 2019-Jan-16 15:42     15 16 34.070081 -16 21 00.97934
 2019-Jan-16 15:43 A   15 16 34.155880 -16 21 01.55139
 2019-Jan-16 15:44 A   15 16 34.241671 -16 21 02.12338
 2019-Jan-16 15:45 A   15 16 34.327454 -16 21 02.69532
 2019-Jan-16 15:46 A   15 16 34.413229 -16 21 03.26721
 2019-Jan-16 15:47 A   15 16 34.498996 -16 21 03.83904
 2019-Jan-16 15:48 A   15 16 34.584755 -16 21 04.41082
 2019-Jan-16 15:49 A   15 16 34.670507 -16 21 04.98255
 2019-Jan-16 15:50 A   15 16 34.756250 -16 21 05.55422
 2019-Jan-16 15:51 A   15 16 34.841987 -16 21 06.12584
 2019-Jan-16 15:52 A   15 16 34.927715 -16 21 06.69740
 2019-Jan-16 15:53 A   15 16 35.013436 -16 21 07.26891
 2019-Jan-16 15:54 A   15 16 35.099150 -16 21 07.84036
 2019-Jan-16 15:55 A   15 16 35.184856 -16 21 08.41176
 2019-Jan-16 15:56 A   15 16 35.270555 -16 21 08.98311
 2019-Jan-16 15:57 A   15 16 35.356247 -16 21 09.55440
 2019-Jan-16 15:58 A   15 16 35.441931 -16 21 10.12563
 2019-Jan-16 15:59 A   15 16 35.527608 -16 21 10.69681
 2019-Jan-16 16:00 A   15 16 35.613278 -16 21 11.26794
 2019-Jan-16 16:01 A   15 16 35.698940 -16 21 11.83901
 2019-Jan-16 16:02 A   15 16 35.784596 -16 21 12.41002
 2019-Jan-16 16:03 A   15 16 35.870245 -16 21 12.98098
 2019-Jan-16 16:04 A   15 16 35.955886 -16 21 13.55188
 2019-Jan-16 16:05 A   15 16 36.041521 -16 21 14.12273
 2019-Jan-16 16:06 A   15 16 36.127149 -16 21 14.69352
 2019-Jan-16 16:07 A   15 16 36.212770 -16 21 15.26426
 2019-Jan-16 16:08 A   15 16 36.298384 -16 21 15.83494
 2019-Jan-16 16:09 N   15 16 36.383992 -16 21 16.40556
 2019-Jan-16 16:10 N   15 16 36.469593 -16 21 16.97613
 2019-Jan-16 16:11 N   15 16 36.555187 -16 21 17.54664
 2019-Jan-16 16:12 N   15 16 36.640775 -16 21 18.11709
 2019-Jan-16 16:13 N   15 16 36.726357 -16 21 18.68749
 2019-Jan-16 16:14 N   15 16 36.811932 -16 21 19.25783
 2019-Jan-16 16:15 N   15 16 36.897500 -16 21 19.82811
 2019-Jan-16 16:16 N   15 16 36.983062 -16 21 20.39834
 2019-Jan-16 16:17 N   15 16 37.068618 -16 21 20.96851
 2019-Jan-16 16:18 N   15 16 37.154168 -16 21 21.53862
 2019-Jan-16 16:19 N   15 16 37.239712 -16 21 22.10867
 2019-Jan-16 16:20 N   15 16 37.325249 -16 21 22.67867
 2019-Jan-16 16:21 N   15 16 37.410781 -16 21 23.24861
 2019-Jan-16 16:22 N   15 16 37.496306 -16 21 23.81849
 2019-Jan-16 16:23 N   15 16 37.581826 -16 21 24.38832
 2019-Jan-16 16:24 N   15 16 37.667339 -16 21 24.95808
 2019-Jan-16 16:25 N   15 16 37.752847 -16 21 25.52779
 2019-Jan-16 16:26 N   15 16 37.838349 -16 21 26.09744
 2019-Jan-16 16:27 N   15 16 37.923846 -16 21 26.66704
 2019-Jan-16 16:28 N   15 16 38.009336 -16 21 27.23657
 2019-Jan-16 16:29 N   15 16 38.094822 -16 21 27.80605
 2019-Jan-16 16:30 N   15 16 38.180301 -16 21 28.37546
